STARLINK-36391          
1 67591U 26018C   26046.12241413  .00105329  00000+0  54295-3 0  9998
2 67591  97.2843 110.7920 0001038  83.5147 276.6239 15.80859352  3759
STARLINK-36603          
1 67592U 26018D   26046.12166740  .00177399  00000+0  90505-3 0  9998
2 67592  97.2843 110.7930 0001017  84.1172 276.0212 15.80891692  3751
STARLINK-36634          
1 67593U 26018E   26046.12051993  .00136404  00000+0  70020-3 0  9994
2 67593  97.2846 110.7944 0001306 100.0056 260.1359 15.80865557  3757
STARLINK-36638          
1 67594U 26018F   26046.11940644  .00162651  00000+0  83117-3 0  9998
2 67594  97.2846 110.7960 0001500 103.3182 256.8253 15.80894431  3756
STARLINK-36628          
1 67595U 26018G   26046.16668981 -.01863283  00000+0 -13316-1 0  9999
2 67595  97.2847 110.8457 0001554  62.7953 204.0431 15.76798421  3720
STARLINK-36629          
1 67596U 26018H   26046.16668981 -.00098689  00000+0 -66545-3 0  9993
2 67596  97.2843 110.8280 0001409  60.9931 162.9101 15.75293199  3723
STARLINK-36384          
1 67597U 26018J   26046.11646371  .00133411  00000+0  68529-3 0  9993
2 67597  97.2851 110.7988 0001194 131.5685 228.5686 15.80858990  3751
STARLINK-36358          
1 67598U 26018K   26046.16668981 -.00059570  00000+0 -40042-3 0  9995
2 67598  97.2843 110.8424 0001083  84.1290 173.8011 15.75241358  3775
STARLINK-36582          
1 67599U 26018L   26046.17781022  .00146241  00000+0  74931-3 0  9993
2 67599  97.2850 110.8684 0001120  86.3873 273.7523 15.80879798  3819
STARLINK-36640          
1 67600U 26018M   26046.16668981 -.00079488  00000+0 -53529-3 0  9993
2 67600  97.2844 110.8323 0001280 100.4657 135.4506 15.75264529  3730
STARLINK-36635          
1 67601U 26018N   26046.11362256  .00102809  00000+0  53030-3 0  9994
2 67601  97.2852 110.8022 0001055  98.4582 261.6806 15.80852055  3759
STARLINK-36631          
1 67602U 26018P   26046.17454432  .00223732  00000+0  11346-2 0  9991
2 67602  97.2850 110.8723 0001294  69.4346 290.7061 15.80902773  3767
