CCSDS_OMM_VERS = 2.0
CREATION_DATE  = 
ORIGINATOR     = 

OBJECT_NAME    = STARLINK-36391
OBJECT_ID      = 2026-018C
CENTER_NAME    = EARTH
REF_FRAME      = TEME
TIME_SYSTEM    = UTC
MEAN_ELEMENT_THEORY = SGP/SGP4

EPOCH          = 2026-02-15T02:56:16.580832
MEAN_MOTION    = 15.80859352
ECCENTRICITY   = .0001038
INCLINATION    = 97.2843
RA_OF_ASC_NODE = 110.7920
ARG_OF_PERICENTER = 83.5147
MEAN_ANOMALY   = 276.6239

EPHEMERIS_TYPE = 0
CLASSIFICATION_TYPE = U
NORAD_CAT_ID   = 67591
ELEMENT_SET_NO = 999
REV_AT_EPOCH   = 375
BSTAR          = .54295E-3
MEAN_MOTION_DOT = .105329E-2
MEAN_MOTION_DDOT = 0

CCSDS_OMM_VERS = 2.0
CREATION_DATE  = 
ORIGINATOR     = 

OBJECT_NAME    = STARLINK-36603
OBJECT_ID      = 2026-018D
CENTER_NAME    = EARTH
REF_FRAME      = TEME
TIME_SYSTEM    = UTC
MEAN_ELEMENT_THEORY = SGP/SGP4

EPOCH          = 2026-02-15T02:55:12.063360
MEAN_MOTION    = 15.80891692
ECCENTRICITY   = .0001017
INCLINATION    = 97.2843
RA_OF_ASC_NODE = 110.7930
ARG_OF_PERICENTER = 84.1172
MEAN_ANOMALY   = 276.0212

EPHEMERIS_TYPE = 0
CLASSIFICATION_TYPE = U
NORAD_CAT_ID   = 67592
ELEMENT_SET_NO = 999
REV_AT_EPOCH   = 375
BSTAR          = .90505E-3
MEAN_MOTION_DOT = .177399E-2
MEAN_MOTION_DDOT = 0

CCSDS_OMM_VERS = 2.0
CREATION_DATE  = 
ORIGINATOR     = 

OBJECT_NAME    = STARLINK-36634
OBJECT_ID      = 2026-018E
CENTER_NAME    = EARTH
REF_FRAME      = TEME
TIME_SYSTEM    = UTC
MEAN_ELEMENT_THEORY = SGP/SGP4

EPOCH          = 2026-02-15T02:53:32.921952
MEAN_MOTION    = 15.80865557
ECCENTRICITY   = .0001306
INCLINATION    = 97.2846
RA_OF_ASC_NODE = 110.7944
ARG_OF_PERICENTER = 100.0056
MEAN_ANOMALY   = 260.1359

EPHEMERIS_TYPE = 0
CLASSIFICATION_TYPE = U
NORAD_CAT_ID   = 67593
ELEMENT_SET_NO = 999
REV_AT_EPOCH   = 375
BSTAR          = .7002E-3
MEAN_MOTION_DOT = .136404E-2
MEAN_MOTION_DDOT = 0

CCSDS_OMM_VERS = 2.0
CREATION_DATE  = 
ORIGINATOR     = 

OBJECT_NAME    = STARLINK-36638
OBJECT_ID      = 2026-018F
CENTER_NAME    = EARTH
REF_FRAME      = TEME
TIME_SYSTEM    = UTC
MEAN_ELEMENT_THEORY = SGP/SGP4

EPOCH          = 2026-02-15T02:51:56.716416
MEAN_MOTION    = 15.80894431
ECCENTRICITY   = .00015
INCLINATION    = 97.2846
RA_OF_ASC_NODE = 110.7960
ARG_OF_PERICENTER = 103.3182
MEAN_ANOMALY   = 256.8253

EPHEMERIS_TYPE = 0
CLASSIFICATION_TYPE = U
NORAD_CAT_ID   = 67594
ELEMENT_SET_NO = 999
REV_AT_EPOCH   = 375
BSTAR          = .83117E-3
MEAN_MOTION_DOT = .162651E-2
MEAN_MOTION_DDOT = 0

CCSDS_OMM_VERS = 2.0
CREATION_DATE  = 
ORIGINATOR     = 

OBJECT_NAME    = STARLINK-36628
OBJECT_ID      = 2026-018G
CENTER_NAME    = EARTH
REF_FRAME      = TEME
TIME_SYSTEM    = UTC
MEAN_ELEMENT_THEORY = SGP/SGP4

EPOCH          = 2026-02-15T04:00:01.999584
MEAN_MOTION    = 15.76798421
ECCENTRICITY   = .0001554
INCLINATION    = 97.2847
RA_OF_ASC_NODE = 110.8457
ARG_OF_PERICENTER = 62.7953
MEAN_ANOMALY   = 204.0431

EPHEMERIS_TYPE = 0
CLASSIFICATION_TYPE = U
NORAD_CAT_ID   = 67595
ELEMENT_SET_NO = 999
REV_AT_EPOCH   = 372
BSTAR          = -.13316E-1
MEAN_MOTION_DOT = -.1863283E-1
MEAN_MOTION_DDOT = 0

CCSDS_OMM_VERS = 2.0
CREATION_DATE  = 
ORIGINATOR     = 

OBJECT_NAME    = STARLINK-36629
OBJECT_ID      = 2026-018H
CENTER_NAME    = EARTH
REF_FRAME      = TEME
TIME_SYSTEM    = UTC
MEAN_ELEMENT_THEORY = SGP/SGP4

EPOCH          = 2026-02-15T04:00:01.999584
MEAN_MOTION    = 15.75293199
ECCENTRICITY   = .0001409
INCLINATION    = 97.2843
RA_OF_ASC_NODE = 110.8280
ARG_OF_PERICENTER = 60.9931
MEAN_ANOMALY   = 162.9101

EPHEMERIS_TYPE = 0
CLASSIFICATION_TYPE = U
NORAD_CAT_ID   = 67596
ELEMENT_SET_NO = 999
REV_AT_EPOCH   = 372
BSTAR          = -.66545E-3
MEAN_MOTION_DOT = -.98689E-3
MEAN_MOTION_DDOT = 0

CCSDS_OMM_VERS = 2.0
CREATION_DATE  = 
ORIGINATOR     = 

OBJECT_NAME    = STARLINK-36384
OBJECT_ID      = 2026-018J
CENTER_NAME    = EARTH
REF_FRAME      = TEME
TIME_SYSTEM    = UTC
MEAN_ELEMENT_THEORY = SGP/SGP4

EPOCH          = 2026-02-15T02:47:42.464544
MEAN_MOTION    = 15.80858990
ECCENTRICITY   = .0001194
INCLINATION    = 97.2851
RA_OF_ASC_NODE = 110.7988
ARG_OF_PERICENTER = 131.5685
MEAN_ANOMALY   = 228.5686

EPHEMERIS_TYPE = 0
CLASSIFICATION_TYPE = U
NORAD_CAT_ID   = 67597
ELEMENT_SET_NO = 999
REV_AT_EPOCH   = 375
BSTAR          = .68529E-3
MEAN_MOTION_DOT = .133411E-2
MEAN_MOTION_DDOT = 0

CCSDS_OMM_VERS = 2.0
CREATION_DATE  = 
ORIGINATOR     = 

OBJECT_NAME    = STARLINK-36358
OBJECT_ID      = 2026-018K
CENTER_NAME    = EARTH
REF_FRAME      = TEME
TIME_SYSTEM    = UTC
MEAN_ELEMENT_THEORY = SGP/SGP4

EPOCH          = 2026-02-15T04:00:01.999584
MEAN_MOTION    = 15.75241358
ECCENTRICITY   = .0001083
INCLINATION    = 97.2843
RA_OF_ASC_NODE = 110.8424
ARG_OF_PERICENTER = 84.1290
MEAN_ANOMALY   = 173.8011

EPHEMERIS_TYPE = 0
CLASSIFICATION_TYPE = U
NORAD_CAT_ID   = 67598
ELEMENT_SET_NO = 999
REV_AT_EPOCH   = 377
BSTAR          = -.40042E-3
MEAN_MOTION_DOT = -.5957E-3
MEAN_MOTION_DDOT = 0

CCSDS_OMM_VERS = 2.0
CREATION_DATE  = 
ORIGINATOR     = 

OBJECT_NAME    = STARLINK-36582
OBJECT_ID      = 2026-018L
CENTER_NAME    = EARTH
REF_FRAME      = TEME
TIME_SYSTEM    = UTC
MEAN_ELEMENT_THEORY = SGP/SGP4

EPOCH          = 2026-02-15T04:16:02.803008
MEAN_MOTION    = 15.80879798
ECCENTRICITY   = .000112
INCLINATION    = 97.2850
RA_OF_ASC_NODE = 110.8684
ARG_OF_PERICENTER = 86.3873
MEAN_ANOMALY   = 273.7523

EPHEMERIS_TYPE = 0
CLASSIFICATION_TYPE = U
NORAD_CAT_ID   = 67599
ELEMENT_SET_NO = 999
REV_AT_EPOCH   = 381
BSTAR          = .74931E-3
MEAN_MOTION_DOT = .146241E-2
MEAN_MOTION_DDOT = 0

CCSDS_OMM_VERS = 2.0
CREATION_DATE  = 
ORIGINATOR     = 

OBJECT_NAME    = STARLINK-36640
OBJECT_ID      = 2026-018M
CENTER_NAME    = EARTH
REF_FRAME      = TEME
TIME_SYSTEM    = UTC
MEAN_ELEMENT_THEORY = SGP/SGP4

EPOCH          = 2026-02-15T04:00:01.999584
MEAN_MOTION    = 15.75264529
ECCENTRICITY   = .000128
INCLINATION    = 97.2844
RA_OF_ASC_NODE = 110.8323
ARG_OF_PERICENTER = 100.4657
MEAN_ANOMALY   = 135.4506

EPHEMERIS_TYPE = 0
CLASSIFICATION_TYPE = U
NORAD_CAT_ID   = 67600
ELEMENT_SET_NO = 999
REV_AT_EPOCH   = 373
BSTAR          = -.53529E-3
MEAN_MOTION_DOT = -.79488E-3
MEAN_MOTION_DDOT = 0

CCSDS_OMM_VERS = 2.0
CREATION_DATE  = 
ORIGINATOR     = 

OBJECT_NAME    = STARLINK-36635
OBJECT_ID      = 2026-018N
CENTER_NAME    = EARTH
REF_FRAME      = TEME
TIME_SYSTEM    = UTC
MEAN_ELEMENT_THEORY = SGP/SGP4

EPOCH          = 2026-02-15T02:43:36.989184
MEAN_MOTION    = 15.80852055
ECCENTRICITY   = .0001055
INCLINATION    = 97.2852
RA_OF_ASC_NODE = 110.8022
ARG_OF_PERICENTER = 98.4582
MEAN_ANOMALY   = 261.6806

EPHEMERIS_TYPE = 0
CLASSIFICATION_TYPE = U
NORAD_CAT_ID   = 67601
ELEMENT_SET_NO = 999
REV_AT_EPOCH   = 375
BSTAR          = .5303E-3
MEAN_MOTION_DOT = .102809E-2
MEAN_MOTION_DDOT = 0

CCSDS_OMM_VERS = 2.0
CREATION_DATE  = 
ORIGINATOR     = 

OBJECT_NAME    = STARLINK-36631
OBJECT_ID      = 2026-018P
CENTER_NAME    = EARTH
REF_FRAME      = TEME
TIME_SYSTEM    = UTC
MEAN_ELEMENT_THEORY = SGP/SGP4

EPOCH          = 2026-02-15T04:11:20.629248
MEAN_MOTION    = 15.80902773
ECCENTRICITY   = .0001294
INCLINATION    = 97.2850
RA_OF_ASC_NODE = 110.8723
ARG_OF_PERICENTER = 69.4346
MEAN_ANOMALY   = 290.7061

EPHEMERIS_TYPE = 0
CLASSIFICATION_TYPE = U
NORAD_CAT_ID   = 67602
ELEMENT_SET_NO = 999
REV_AT_EPOCH   = 376
BSTAR          = .11346E-2
MEAN_MOTION_DOT = .223732E-2
MEAN_MOTION_DDOT = 0

